[{"OBJECT_NAME":"TIANPING 2C","OBJECT_ID":"2022-032D","EPOCH":"2026-03-09T22:24:23.522112","MEAN_MOTION":15.10225163,"ECCENTRICITY":0.00079422,"INCLINATION":97.5961,"RA_OF_ASC_NODE":122.1196,"ARG_OF_PERICENTER":128.8925,"MEAN_ANOMALY":231.3013,"EPHEMERIS_TYPE":0,"CLASSIFICATION_TYPE":"U","NORAD_CAT_ID":52156,"ELEMENT_SET_NO":999,"REV_AT_EPOCH":21586,"BSTAR":0.00036090623,"MEAN_MOTION_DOT":5.841e-5,"MEAN_MOTION_DDOT":0},{"OBJECT_NAME":"STARLINK-3996","OBJECT_ID":"2022-052V","EPOCH":"2026-03-09T22:39:01.701216","MEAN_MOTION":15.0883833,"ECCENTRICITY":0.0001327,"INCLINATION":53.2174,"RA_OF_ASC_NODE":267.9799,"ARG_OF_PERICENTER":85.0569,"MEAN_ANOMALY":275.0575,"EPHEMERIS_TYPE":0,"CLASSIFICATION_TYPE":"U","NORAD_CAT_ID":52617,"ELEMENT_SET_NO":999,"REV_AT_EPOCH":21102,"BSTAR":4.6699496e-5,"MEAN_MOTION_DOT":4.55e-6,"MEAN_MOTION_DDOT":0}]
